0 FENGYUN 1C DEB
1 32444U 99025DBG 13283.72393626  .00007295  00000-0  44416-2 0  3456
2 32444 099.0650 266.4649 0118478 311.5772 047.5503 14.02983200316799
0 FENGYUN 1C DEB
1 32444U 99025DBG 13287.14700218  .00007508  00000-0  45690-2 0  3479
2 32444 099.0651 269.8738 0117799 302.0024 057.0158 14.03037136317271
0 FENGYUN 1C DEB
1 32444U 99025DBG 13289.14372439  .00007741  00000-0  47042-2 0  3484
2 32444 099.0635 271.8611 0118321 296.6783 062.2813 14.03071724317556
0 FENGYUN 1C DEB
1 32444U 99025DBG 13291.14039896  .00008472  00000-0  51548-2 0  3493
2 32444 099.0672 273.8588 0115754 292.2773 066.7144 14.03113979317836
0 FENGYUN 1C DEB
1 32444U 99025DBG 13294.77705340  .00008991  00000-0  54813-2 0  3505
2 32444 099.0703 277.4921 0112210 280.9008 078.1081 14.03185204318345
0 FENGYUN 1C DEB
1 32444U 99025DBG 13296.20311521  .00009055  00000-0  55145-2 0  3511
2 32444 099.0698 278.9130 0112718 277.0012 081.8360 14.03212075318541
